{
  "type": "FeatureCollection",
  "features": [
    {
      "type": "Feature",
      "properties": {
        "norad_id": 66509,
        "name": "STARLINK-35598",
        "group": "last-30-days",
        "lat": 39.98185957098008,
        "lon": -151.32970349094316,
        "alt_km": 409.59659275080594,
        "timestamp": "2025-12-09T09:46:46.421698+00:00",
        "meta_object_name": "STARLINK-35598",
        "meta_object_id": "2025-263AA",
        "meta_epoch": "2025-12-08T22:00:03.000096",
        "meta_mean_motion": 15.50549297,
        "meta_eccentricity": 0.00015254,
        "meta_inclination": 43.0003,
        "meta_ra_of_asc_node": 147.3993,
        "meta_arg_of_pericenter": 275.2441,
        "meta_mean_anomaly": 292.4225,
        "meta_ephemeris_type": 0,
        "meta_classification_type": "U",
        "meta_norad_cat_id": 66509,
        "meta_element_set_no": 999,
        "meta_rev_at_epoch": 502,
        "meta_bstar": 0.00040510214,
        "meta_mean_motion_dot": 0.0002347,
        "meta_mean_motion_ddot": 0,
        "tle_line1": "1 66509U 25263AA  25342.91670139  .00023470  00000+0  40510-3 0  9994",
        "tle_line2": "2 66509  43.0003 147.3993 0001525 275.2441 292.4225 15.50549297  5022"
      },
      "geometry": {
        "type": "Point",
        "coordinates": [
          -151.32970349094316,
          39.98185957098008
        ]
      }
    },
    {
      "type": "Feature",
      "properties": {
        "norad_id": 66510,
        "name": "STARLINK-35600",
        "group": "last-30-days",
        "lat": 38.05816465631483,
        "lon": -158.2985107775368,
        "alt_km": 409.8166853180137,
        "timestamp": "2025-12-09T09:46:46.421711+00:00",
        "meta_object_name": "STARLINK-35600",
        "meta_object_id": "2025-263AB",
        "meta_epoch": "2025-12-08T22:00:03.000096",
        "meta_mean_motion": 15.50553037,
        "meta_eccentricity": 0.0001454,
        "meta_inclination": 43.0003,
        "meta_ra_of_asc_node": 147.4144,
        "meta_arg_of_pericenter": 275.1506,
        "meta_mean_anomaly": 286.7673,
        "meta_ephemeris_type": 0,
        "meta_classification_type": "U",
        "meta_norad_cat_id": 66510,
        "meta_element_set_no": 999,
        "meta_rev_at_epoch": 502,
        "meta_bstar": 0.0002800353,
        "meta_mean_motion_dot": 0.00016105,
        "meta_mean_motion_ddot": 0,
        "tle_line1": "1 66510U 25263AB  25342.91670139  .00016105  00000+0  28004-3 0  9997",
        "tle_line2": "2 66510  43.0003 147.4144 0001454 275.1506 286.7673 15.50553037  5025"
      },
      "geometry": {
        "type": "Point",
        "coordinates": [
          -158.2985107775368,
          38.05816465631483
        ]
      }
    },
    {
      "type": "Feature",
      "properties": {
        "norad_id": 66511,
        "name": "STARLINK-35444",
        "group": "last-30-days",
        "lat": 39.38640458673415,
        "lon": -153.69676069083397,
        "alt_km": 409.5485023380543,
        "timestamp": "2025-12-09T09:46:46.421722+00:00",
        "meta_object_name": "STARLINK-35444",
        "meta_object_id": "2025-263AC",
        "meta_epoch": "2025-12-08T22:00:03.000096",
        "meta_mean_motion": 15.50622254,
        "meta_eccentricity": 0.00015527,
        "meta_inclination": 43.0002,
        "meta_ra_of_asc_node": 147.4052,
        "meta_arg_of_pericenter": 291.6691,
        "meta_mean_anomaly": 274.0207,
        "meta_ephemeris_type": 0,
        "meta_classification_type": "U",
        "meta_norad_cat_id": 66511,
        "meta_element_set_no": 999,
        "meta_rev_at_epoch": 502,
        "meta_bstar": -0.0010751862,
        "meta_mean_motion_dot": -0.00063009,
        "meta_mean_motion_ddot": 0,
        "tle_line1": "1 66511U 25263AC  25342.91670139 -.00063009  00000+0 -10752-2 0  9995",
        "tle_line2": "2 66511  43.0002 147.4052 0001552 291.6691 274.0207 15.50622254  5021"
      },
      "geometry": {
        "type": "Point",
        "coordinates": [
          -153.69676069083397,
          39.38640458673415
        ]
      }
    },
    {
      "type": "Feature",
      "properties": {
        "norad_id": 66512,
        "name": "STARLINK-35366",
        "group": "last-30-days",
        "lat": 40.52946837410908,
        "lon": -148.91396265337545,
        "alt_km": 409.4924446811665,
        "timestamp": "2025-12-09T09:46:46.421734+00:00",
        "meta_object_name": "STARLINK-35366",
        "meta_object_id": "2025-263AD",
        "meta_epoch": "2025-12-08T22:00:03.000096",
        "meta_mean_motion": 15.50636859,
        "meta_eccentricity": 0.0001529,
        "meta_inclination": 43.0002,
        "meta_ra_of_asc_node": 147.3951,
        "meta_arg_of_pericenter": 290.5806,
        "meta_mean_anomaly": 278.9592,
        "meta_ephemeris_type": 0,
        "meta_classification_type": "U",
        "meta_norad_cat_id": 66512,
        "meta_element_set_no": 999,
        "meta_rev_at_epoch": 502,
        "meta_bstar": -0.0017196197,
        "meta_mean_motion_dot": -0.0010015,
        "meta_mean_motion_ddot": 0,
        "tle_line1": "1 66512U 25263AD  25342.91670139 -.00100150  00000+0 -17196-2 0  9994",
        "tle_line2": "2 66512  43.0002 147.3951 0001529 290.5806 278.9592 15.50636859  5025"
      },
      "geometry": {
        "type": "Point",
        "coordinates": [
          -148.91396265337545,
          40.52946837410908
        ]
      }
    },
    {
      "type": "Feature",
      "properties": {
        "norad_id": 66513,
        "name": "STARLINK-35692",
        "group": "last-30-days",
        "lat": 38.745865110996114,
        "lon": -156.01602692523173,
        "alt_km": 409.76997558974836,
        "timestamp": "2025-12-09T09:46:46.421745+00:00",
        "meta_object_name": "STARLINK-35692",
        "meta_object_id": "2025-263AE",
        "meta_epoch": "2025-12-08T22:00:03.000096",
        "meta_mean_motion": 15.50553863,
        "meta_eccentricity": 0.0001499,
        "meta_inclination": 43.0003,
        "meta_ra_of_asc_node": 147.4097,
        "meta_arg_of_pericenter": 274.4675,
        "meta_mean_anomaly": 289.3705,
        "meta_ephemeris_type": 0,
        "meta_classification_type": "U",
        "meta_norad_cat_id": 66513,
        "meta_element_set_no": 999,
        "meta_rev_at_epoch": 502,
        "meta_bstar": 0.00020218157,
        "meta_mean_motion_dot": 0.00011526,
        "meta_mean_motion_ddot": 0,
        "tle_line1": "1 66513U 25263AE  25342.91670139  .00011526  00000+0  20218-3 0  9991",
        "tle_line2": "2 66513  43.0003 147.4097 0001499 274.4675 289.3705 15.50553863  5025"
      },
      "geometry": {
        "type": "Point",
        "coordinates": [
          -156.01602692523173,
          38.745865110996114
        ]
      }
    },
    {
      "type": "Feature",
      "properties": {
        "norad_id": 66514,
        "name": "SENTINEL-6B",
        "group": "last-30-days",
        "lat": -21.455441293041652,
        "lon": -0.5698983935857403,
        "alt_km": 1322.5662508270734,
        "timestamp": "2025-12-09T09:46:46.421759+00:00",
        "meta_object_name": "SENTINEL-6B",
        "meta_object_id": "2025-264A",
        "meta_epoch": "2025-12-08T21:30:18.918720",
        "meta_mean_motion": 12.84031984,
        "meta_eccentricity": 0.00210409,
        "meta_inclination": 66.0385,
        "meta_ra_of_asc_node": 170.4334,
        "meta_arg_of_pericenter": 268.2483,
        "meta_mean_anomaly": 91.6124,
        "meta_ephemeris_type": 0,
        "meta_classification_type": "U",
        "meta_norad_cat_id": 66514,
        "meta_element_set_no": 999,
        "meta_rev_at_epoch": 279,
        "meta_bstar": 0.00010479155,
        "meta_mean_motion_dot": -3.6e-07,
        "meta_mean_motion_ddot": 0,
        "tle_line1": "1 66514U 25264A   25342.89605230 -.00000036  00000+0  10479-3 0  9993",
        "tle_line2": "2 66514  66.0385 170.4334 0021040 268.2483  91.6124 12.84031984  2795"
      },
      "geometry": {
        "type": "Point",
        "coordinates": [
          -0.5698983935857403,
          -21.455441293041652
        ]
      }
    },
    {
      "type": "Feature",
      "properties": {
        "norad_id": 66516,
        "name": "STARLINK-35924",
        "group": "last-30-days",
        "lat": -32.32826761324273,
        "lon": -63.71080868913596,
        "alt_km": 410.5136932332016,
        "timestamp": "2025-12-09T09:46:46.421769+00:00",
        "meta_object_name": "STARLINK-35924",
        "meta_object_id": "2025-265A",
        "meta_epoch": "2025-12-08T22:00:03.000096",
        "meta_mean_motion": 15.54996199,
        "meta_eccentricity": 0.00015967,
        "meta_inclination": 43.0003,
        "meta_ra_of_asc_node": 76.398,
        "meta_arg_of_pericenter": 273.105,
        "meta_mean_anomaly": 89.7885,
        "meta_ephemeris_type": 0,
        "meta_classification_type": "U",
        "meta_norad_cat_id": 66516,
        "meta_element_set_no": 999,
        "meta_rev_at_epoch": 436,
        "meta_bstar": -0.03360715,
        "meta_mean_motion_dot": -0.02062345,
        "meta_mean_motion_ddot": 0,
        "tle_line1": "1 66516U 25265A   25342.91670139 -.02062345  00000+0 -33607-1 0  9999",
        "tle_line2": "2 66516  43.0003  76.3980 0001596 273.1050  89.7885 15.54996199  4364"
      },
      "geometry": {
        "type": "Point",
        "coordinates": [
          -63.71080868913596,
          -32.32826761324273
        ]
      }
    }
  ]
}